[{"COMMENT":"GENERATED VIA SPACETRACK.ORG API","ORIGINATOR":"18 SPCS","NORAD_CAT_ID":"43476","OBJECT_NAME":"GRACE-FO 1","OBJECT_TYPE":"PAYLOAD","CLASSIFICATION_TYPE":"U","INTLDES":"18047A","EPOCH":"2023-11-26 02:39:36","EPOCH_MICROSECONDS":"445536","MEAN_MOTION":"15.27422019","ECCENTRICITY":"0.0015982","INCLINATION":"88.9805","RA_OF_ASC_NODE":"327.1367","ARG_OF_PERICENTER":"126.5562","MEAN_ANOMALY":"233.7162","EPHEMERIS_TYPE":"0","ELEMENT_SET_NO":"999","REV_AT_EPOCH":"30670","BSTAR":"0.0002702","MEAN_MOTION_DOT":"0.00007302","MEAN_MOTION_DDOT":"0","FILE":"4106527","TLE_LINE0":"0 GRACE-FO 1","TLE_LINE1":"1 43476U 18047A   23330.11083849  .00007302  00000-0  27020-3 0  9995","TLE_LINE2":"2 43476  88.9805 327.1367 0015982 126.5562 233.7162 15.27422019306708","OBJECT_ID":"2018-047A","OBJECT_NUMBER":"43476","SEMIMAJOR_AXIS":"6861.659","PERIOD":"94.276","APOGEE":"494.490","PERIGEE":"472.558","DECAYED":"0"},{"COMMENT":"GENERATED VIA SPACETRACK.ORG API","ORIGINATOR":"18 SPCS","NORAD_CAT_ID":"43476","OBJECT_NAME":"GRACE-FO 1","OBJECT_TYPE":"PAYLOAD","CLASSIFICATION_TYPE":"U","INTLDES":"18047A","EPOCH":"2023-11-25 21:56:34","EPOCH_MICROSECONDS":"746720","MEAN_MOTION":"15.27419262","ECCENTRICITY":"0.0015957","INCLINATION":"88.9806","RA_OF_ASC_NODE":"327.1637","ARG_OF_PERICENTER":"127.1928","MEAN_ANOMALY":"233.0781","EPHEMERIS_TYPE":"0","ELEMENT_SET_NO":"999","REV_AT_EPOCH":"30667","BSTAR":"0.00026722","MEAN_MOTION_DOT":"0.00007221","MEAN_MOTION_DDOT":"0","FILE":"4106487","TLE_LINE0":"0 GRACE-FO 1","TLE_LINE1":"1 43476U 18047A   23329.91429105  .00007221  00000-0  26722-3 0  9998","TLE_LINE2":"2 43476  88.9806 327.1637 0015957 127.1928 233.0781 15.27419262306676","OBJECT_ID":"2018-047A","OBJECT_NUMBER":"43476","SEMIMAJOR_AXIS":"6861.667","PERIOD":"94.277","APOGEE":"494.482","PERIGEE":"472.583","DECAYED":"0"}]